SES-9                   
1 41380U 16013A   26198.64582272 -.00000354  00000+0  00000+0 0  9990
2 41380   0.0147 342.4945 0002170 123.6918 170.0692  1.00271898 37743
EUTELSAT 65 WEST A      
1 41382U 16014A   26198.54018128 -.00000286  00000+0  00000+0 0  9990
2 41382   0.0935 296.4617 0002129 172.6100 315.5458  1.00271394 37832
IRNSS-1F                
1 41384U 16015A   26198.27441486  .00000145  00000+0  00000+0 0  9993
2 41384   5.4222  96.0879 0017728 179.9294 150.3367  1.00267353 37969
BEIDOU-2 IGSO-6         
1 41434U 16021A   26177.11016981 -.00000145  00000+0  00000+0 0  9995
2 41434  60.2385  37.9495 0057558 231.0163 137.2672  1.00258926 37578
IRNSS-1G                
1 41469U 16027A   26198.60348919 -.00000346  00000+0  00000+0 0  9998
2 41469   5.2686  96.7710 0005949  12.1833 173.3888  1.00269634 37489
JCSAT-2B                
1 41471U 16028A   26198.54669616 -.00000175  00000+0  00000+0 0  9995
2 41471   0.0174  53.1729 0000896  57.8115 175.1796  1.00270178 37437
THAICOM 8               
1 41552U 16031A   26198.63989703 -.00000130  00000+0  00000+0 0  9992
2 41552   0.0567  32.0731 0002992  42.0713 170.1557  1.00271820 37021
INTELSAT 31 (IS-31)     
1 41581U 16035A   26198.36919520 -.00000160  00000+0  00000+0 0  9991
2 41581   0.0060  13.9840 0001057 283.2475  35.8039  1.00270166 36983
BEIDOU-2 G7             
1 41586U 16037A   26198.59927344 -.00000363  00000+0  00000+0 0  9991
2 41586   1.7937  69.5208 0005902   0.1301 192.0559  1.00272216  7193
ABS-2A (MONGOLSAT-1)    
1 41588U 16038A   26198.35390258 -.00000093  00000+0  00000+0 0  9996
2 41588   0.0106  51.3870 0001430   9.0146  76.8619  1.00270320 37010
EUTELSAT 117 WEST B     
1 41589U 16038B   26198.60116074 -.00000021  00000+0  00000+0 0  9998
2 41589   0.0089 197.1371 0000252 310.6381 247.0771  1.00273199 36960
BRISAT                  
1 41591U 16039A   26198.54697394  .00000000  00000+0  00000+0 0  9990
2 41591   0.0150  27.9961 0001993  86.8840 167.8934  1.00269333 36912
ECHOSTAR 18             
1 41592U 16039B   26198.46962728 -.00000292  00000+0  00000+0 0  9992
2 41592   0.0174  54.5467 0001528  69.7124 278.7173  1.00270775 36925
MUOS-5                  
1 41622U 16041A   26198.60332742 -.00000153  00000+0  00000+0 0  9998
2 41622   2.1393 302.2723 0199672 260.5733 204.6442  1.00272851 37394
TIANTONG-1 1            
1 41725U 16048A   26198.72304841 -.00000328  00000+0  00000+0 0  9995
2 41725   3.9071  43.6504 0004845  55.3510 198.2054  1.00274523 36577
JCSAT-16                
1 41729U 16050A   26198.58851934 -.00000261  00000+0  00000+0 0  9992
2 41729   0.0178  53.2158 0000971  73.0051 164.9895  1.00270409 36372
USA 270                 
1 41744U 16052A   26195.45234249 -.00000362  00000+0  00000+0 0  9990
2 41744   4.2649  76.8388 0009408 101.7031  42.7683  1.00267800 28409
USA 271                 
1 41745U 16052B   26195.12317037 -.00000300  00000+0  00000+0 0  9994
2 41745   4.2370  76.9135 0011085 165.9764 191.3847  1.00268559 28181
INTELSAT 36 (IS-36)     
1 41747U 16053A   26198.42401164 -.00000034  00000+0  00000+0 0  9992
2 41747   0.0105  39.2752 0002293 305.0932 171.9939  1.00271735 36269
INSAT-3DR               
1 41752U 16054A   26198.63894368 -.00000086  00000+0  00000+0 0  9991
2 41752   0.0761  88.8944 0010480 180.8812 329.6862  1.00271000 36126
GSAT-18                 
1 41793U 16060A   26198.63894368 -.00000086  00000+0  00000+0 0  9993
2 41793   0.0413  91.1327 0005306 348.5095 159.7929  1.00271595 35836
SKY MUSTER 2 (NBN1B)    
1 41794U 16060B   26198.58851846  .00000000  00000+0  00000+0 0  9997
2 41794   0.0192  60.7580 0001730  61.5662 169.7441  1.00269224 35828
HIMAWARI-9              
1 41836U 16064A   26198.56364054  .00000000  00000+0  00000+0 0  9996
2 41836   0.0066 334.9880 0002396 202.8792 101.1586  1.00266850 35515
SHIJIAN-17 (SJ-17)      
1 41838U 16065A   26197.80697905  .00000045  00000+0  00000+0 0  9998
2 41838   5.8263  72.2450 0001933  43.9433 300.8940  0.99866496 35494
GOES 16                 
1 41866U 16071A   26198.60358742 -.00000100  00000+0  00000+0 0  9991
2 41866   0.4103  85.4547 0000567  85.8970 236.6588  1.00271228 35406
TIANLIAN 1-04           
1 41869U 16072A   26198.58807400  .00000021  00000+0  00000+0 0  9993
2 41869   0.9441  82.7060 0044183  90.7312 150.4394  1.00271548 35601
WGS F8 (USA 272)        
1 41879U 16075A   26198.54697394 -.00000212  00000+0  00000+0 0  9995
2 41879   0.0193  49.7104 0000190 119.0765 113.3002  1.00270130 35123
FENGYUN 4A              
1 41882U 16077A   26198.64887384 -.00000367  00000+0  00000+0 0  9993
2 41882   2.3983  79.9379 0008429 159.6698  53.1597  1.00266821 35230
ECHOSTAR 19             
1 41893U 16079A   26198.60514743 -.00000148  00000+0  00000+0 0  9996
2 41893   0.0182  53.4450 0001377  68.5520 294.1727  1.00271309 35006
JCSAT-110A (JCSAT-15)   
1 41903U 16082A   26198.58665640 -.00000360  00000+0  00000+0 0  9998
2 41903   0.0198  46.3780 0000757 112.6445  97.6386  1.00267860 35060
STAR ONE D1             
1 41904U 16082B   26198.50461610 -.00000220  00000+0  00000+0 0  9997
2 41904   0.0079 322.6040 0002256 154.7950 275.5896  1.00270618 35071
TJS-2                   
1 41911U 17001A   26198.61031441 -.00000016  00000+0  00000+0 0  9997
2 41911   0.9100  84.9168 0000807 101.4512  35.2967  1.00271264 35028
SBIRS GEO-4 (USA 273)   
1 41937U 17004A   26198.62863420  .00000118  00000+0  00000+0 0  9991
2 41937   2.3010  44.0475 0002659  67.0004  72.4362  1.00281269 34904
HISPASAT 36W-1          
1 41942U 17006A   26198.40338488 -.00000255  00000+0  00000+0 0  9999
2 41942   0.0142 229.7770 0001002 232.7281 301.9245  1.00268245 34549
TELKOM 3S               
1 41944U 17007A   26198.62779012  .00000000  00000+0  00000+0 0  9995
2 41944   0.0136  63.2517 0002378  53.8216 162.3816  1.00270426 34447
INTELSAT 32E (IS-32E)   
1 41945U 17007B   26198.47309396  .00000000  00000+0  00000+0 0  9993
2 41945   0.0204  56.8085 0000706 317.0659  48.5532  1.00266326 34524
ECHOSTAR 23             
1 42070U 17014A   26198.60254741 -.00000066  00000+0  00000+0 0  9992
2 42070   0.0185  49.4796 0002120  63.1068 289.8421  1.00270678 34223
WGS F9 (USA 275)        
1 42075U 17016A   26198.62196083  .00000000  00000+0  00000+0 0  9992
2 42075   0.0209  56.0017 0000242 196.3380 255.0406  1.00268987 34200
SES-10                  
1 42432U 17017A   26198.53966128 -.00000282  00000+0  00000+0 0  9998
2 42432   0.0176  49.3318 0002586  69.4792 303.9195  1.00271826 34056
CHINASAT 16 (SJ-13)     
1 42662U 17018A   26198.58665705 -.00000362  00000+0  00000+0 0  9995
2 42662   0.0904  88.8142 0005246 129.4376  38.8653  1.00271984 34052
KOREASAT 7              
1 42691U 17023A   26198.64731383 -.00000371  00000+0  00000+0 0  9996
2 42691   0.0210 348.4463 0000878 115.7855 180.1498  1.00273659 33677
SGDC                    
1 42692U 17023B   26198.38795187 -.00000259  00000+0  00000+0 0  9995
2 42692   0.0162 322.9190 0002316 159.0498 238.0332  1.00269877 33702
GSAT-9                  
1 42695U 17024A   26198.66608935 -.00000296  00000+0  00000+0 0  9995
2 42695   0.0932  91.6366 0003404  47.7531 133.1231  1.00277856 33603
INMARSAT 5-F4           
1 42698U 17025A   26198.34280687  .00000065  00000+0  00000+0 0  9997
2 42698   0.0199  47.7192 0000458 132.8595 294.4937  1.00272526 33582
SES-15                  
1 42709U 17026A   26198.47544645  .00000049  00000+0  00000+0 0  9994
2 42709   0.0275 322.3959 0000846 173.7365 201.1742  1.00278439  7739
QZS-2 (MICHIBIKI-2)     
1 42738U 17028A   26198.44031730 -.00000149  00000+0  00000+0 0  9993
2 42738  39.3835 242.7078 0757242 269.6258  83.8926  1.00276175  7936
VIASAT-2                
1 42740U 17029A   26198.39662485 -.00000275  00000+0  00000+0 0  9998
2 42740   0.0201 305.1263 0000506 229.4622 193.5095  1.00271644 33508
EUTELSAT 172B           
1 42741U 17029B   26198.56850558 -.00000016  00000+0  00000+0 0  9991
2 42741   0.0267 121.8579 0000061 148.5501  41.6187  1.00270535 34040
GSAT-19                 
1 42747U 17031A   26198.63383034  .00000116  00000+0  00000+0 0  9998
2 42747   0.0450  89.1573 0006249   2.1612 120.1665  1.00270334 33457
ECHOSTAR 21             
1 42749U 17032A   26198.62638086  .00000057  00000+0  00000+0 0  9994
2 42749   1.7706 357.6836 0002235 107.4631  66.0394  1.00270374 33403
BULGARIASAT-1           
1 42801U 17038A   26198.62473418  .00000002  00000+0  00000+0 0  9995
2 42801   0.0099  11.3652 0003036 110.3704  40.4977  1.00271805 33158
HELLAS-SAT 3            
1 42814U 17040A   26198.56080804  .00000143  00000+0  00000+0 0  9994
2 42814   0.0551  53.2187 0003239  24.8230  98.2121  1.00272720 33116
GSAT-17                 
1 42815U 17040B   26198.64284370 -.00000266  00000+0  00000+0 0  9995
2 42815   0.0539 255.8526 0002365  20.1174 344.3845  1.00269321 33093
INTELSAT 35E (IS-35E)   
1 42818U 17041A   26198.47491397 -.00000248  00000+0  00000+0 0  9999
2 42818   0.0189  50.9911 0001883  67.1738 313.5877  1.00272841 33117
COSMOS 2520             
1 42907U 17046A   26198.63313699  .00000127  00000+0  00000+0 0  9994
2 42907   0.0323 107.4282 0000855 341.0028 119.9449  1.00279083 32701
TDRS 13                 
1 42915U 17047A   26198.62213418 -.00000109  00000+0  00000+0 0  9992
2 42915   3.4601   3.4830 0014840 111.3745  33.1433  1.00271916 32654
QZS-3 (MICHIBIKI-3)     
1 42917U 17048A   26198.56919843 -.00000357  00000+0  00000+0 0  9998
2 42917   0.0621 212.1155 0002624 274.5166 140.7035  1.00271170 32561
AMAZONAS 5              
1 42934U 17053A   26198.46971395 -.00000292  00000+0  00000+0 0  9990
2 42934   0.0358 319.0342 0001066 125.0923 319.2528  1.00271371 32341
ASIASAT 9               
1 42942U 17057A   26198.64852716 -.00000369  00000+0  00000+0 0  9993
2 42942   0.0144  43.2572 0002305  64.8822 182.8986  1.00270224 32167
